NORAD_CAT_ID,OBJECT_NAME,OBJECT_TYPE,EPOCH,MEAN_MOTION,ECCENTRICITY,INCLINATION,RA_OF_ASC_NODE,ARG_OF_PERICENTER,MEAN_ANOMALY,BSTAR,MEAN_MOTION_DOT,MEAN_MOTION_DDOT,TLE_LINE0,TLE_LINE1,TLE_LINE2,SEMIMAJOR_AXIS,PERIOD,APOGEE,PERIGEE,DECAYED
56803.0,STARLINK-6029,PAYLOAD,2023-06-06 16:00:03,15.91223768,0.0027164,70.004,35.8055,161.9613,105.2285,-0.0031873,-0.01050993,0.00032875,0 STARLINK-6029,1 56803U 23078AN  23157.66670139 -.01050993  32875-3 -31873-2 0  9999,2 56803  70.0040  35.8055 0027164 161.9613 105.2285 15.91223768  1309,6676.994,90.496,316.997,280.722,0.0
56803.0,STARLINK-6029,PAYLOAD,2023-06-06 22:00:00,15.90679333,0.0024542,70.0038,35.0806,162.2703,96.2177,-0.0030286,-0.00965506,0.0002795,0 STARLINK-6029,1 56803U 23078AN  23157.91667824 -.00965506  27950-3 -30286-2 0  9993,2 56803  70.0038  35.0806 0024542 162.2703  96.2177 15.90679333  1304,6678.518,90.527,316.773,283.992,0.0
56803.0,STARLINK-6029,PAYLOAD,2023-06-07 05:58:27,15.9034784,0.0026627,70.0038,34.1178,166.9644,193.2257,-0.0007735,-0.00245296,2.3519e-05,0 STARLINK-6029,1 56803U 23078AN  23158.24892905 -.00245296  23519-4 -77350-3 0  9999,2 56803  70.0038  34.1178 0026627 166.9644 193.2257 15.90347840  1130,6679.446,90.546,319.096,283.525,0.0
56803.0,STARLINK-6029,PAYLOAD,2023-06-07 12:00:00,15.89550085,0.0019442,70.0031,33.3908,164.745,191.9655,-0.0032484,-0.00967718,0.00027759,0 STARLINK-6029,1 56803U 23078AN  23158.50001157 -.00967718  27759-3 -32484-2 0  9996,2 56803  70.0031  33.3908 0019442 164.7450 191.9655 15.89550085  1438,6681.68,90.592,316.536,290.555,0.0
56803.0,STARLINK-6029,PAYLOAD,2023-06-07 20:00:01,15.88895451,0.0016198,70.0031,32.4267,166.0615,297.1478,-0.0034416,-0.00986842,0.000286,0 STARLINK-6029,1 56803U 23078AN  23158.83334491 -.00986842  28600-3 -34416-2 0  9994,2 56803  70.0031  32.4267 0016198 166.0615 297.1478 15.88895451  1484,6683.516,90.629,316.206,294.555,0.0
56803.0,STARLINK-6029,PAYLOAD,2023-06-07 22:00:00,15.88710144,0.0015501,70.0029,32.1858,166.2891,53.4253,-0.0033077,-0.00939112,0.00026045,0 STARLINK-6029,1 56803U 23078AN  23158.91667824 -.00939112  26045-3 -33077-2 0  9993,2 56803  70.0029  32.1858 0015501 166.2891  53.4253 15.88710144  1309,6684.035,90.64,316.261,295.539,0.0
56803.0,STARLINK-6029,PAYLOAD,2023-06-08 04:00:00,15.88261452,0.0013247,70.0022,31.4633,168.4387,40.4635,-0.0036621,-0.0101335,0.00029856,0 STARLINK-6029,1 56803U 23078AN  23159.16667824 -.01013350  29856-3 -36621-2 0  9990,2 56803  70.0022  31.4633 0013247 168.4387  40.4635 15.88261452  1532,6685.294,90.665,316.015,298.303,0.0
56803.0,STARLINK-6029,PAYLOAD,2023-06-08 12:00:00,15.87588038,0.0010788,70.0024,30.5006,174.1637,139.6646,-0.0035996,-0.0096136,0.00026908,0 STARLINK-6029,1 56803U 23078AN  23159.50001157 -.00961360  26908-3 -35996-2 0  9990,2 56803  70.0024  30.5006 0010788 174.1637 139.6646 15.87588038  1597,6687.184,90.704,316.263,301.835,0.0
56803.0,STARLINK-6029,PAYLOAD,2023-06-08 12:11:42,15.87809588,0.0009912,70.0031,30.4773,174.4277,185.704,-0.00035228,-0.00096454,6.8635e-06,0 STARLINK-6029,1 56803U 23078AN  23159.50813287 -.00096454  68635-5 -35228-3 0  9992,2 56803  70.0031  30.4773 0009912 174.4277 185.7040 15.87809588  1333,6686.562,90.691,315.055,301.8,0.0
56803.0,STARLINK-6029,PAYLOAD,2023-06-08 20:00:01,15.8695104,0.0007703,70.0029,29.5391,181.9607,236.0772,-0.0039222,-0.00918538,0.0,0 STARLINK-6029,1 56803U 23078AN  23159.83335648 -.00918538  00000-0 -39222-2 0  9998,2 56803  70.0029  29.5391 0007703 181.9607 236.0772 15.86951040  1647,6688.974,90.74,315.991,305.686,0.0
56803.0,STARLINK-6029,PAYLOAD,2023-06-08 22:00:00,15.8674729,0.0006972,70.0028,29.299,183.5247,350.3716,-0.0036186,-0.00845254,0.0,0 STARLINK-6029,1 56803U 23078AN  23159.91667824 -.00845254  00000-0 -36186-2 0  9991,2 56803  70.0028  29.2990 0006972 183.5247 350.3716 15.86747290  1304,6689.546,90.752,316.075,306.747,0.0
56803.0,STARLINK-6029,PAYLOAD,2023-06-09 04:00:00,15.86310107,0.0005088,70.0026,28.5784,196.2352,325.0866,-0.0040939,-0.00926001,0.0,0 STARLINK-6029,1 56803U 23078AN  23160.16667824 -.00926001  00000-0 -40939-2 0  9991,2 56803  70.0026  28.5784 0005088 196.2352 325.0866 15.86310107  1690,6690.775,90.777,316.045,309.236,0.0
56803.0,STARLINK-6029,PAYLOAD,2023-06-09 12:00:02,15.85631324,0.0003967,70.0031,27.6188,223.771,40.1967,-0.0039561,-0.00870436,0.0,0 STARLINK-6029,1 56803U 23078AN  23160.50002315 -.00870436  00000-0 -39561-2 0  9996,2 56803  70.0031  27.6188 0003967 223.7710  40.1967 15.85631324  1752,6692.685,90.816,317.205,311.895,0.0
56803.0,STARLINK-6029,PAYLOAD,2023-06-09 14:00:01,15.85513368,0.0003726,70.0033,27.3791,233.9625,145.4458,-0.0043475,-0.00943063,0.0,0 STARLINK-6029,1 56803U 23078AN  23160.58334491 -.00943063  00000-0 -43475-2 0  9993,2 56803  70.0033  27.3791 0003726 233.9625 145.4458 15.85513368  1304,6693.017,90.822,317.375,312.388,0.0
56803.0,STARLINK-6029,PAYLOAD,2023-06-09 20:00:01,15.8499843,0.0003531,70.0037,26.6601,258.0674,107.6309,-0.0043382,-0.0092016,0.0,0 STARLINK-6029,1 56803U 23078AN  23160.83334491 -.00920160  00000-0 -43382-2 0  9991,2 56803  70.0037  26.6601 0003531 258.0674 107.6309 15.84998430  1802,6694.466,90.852,318.695,313.967,0.0
56803.0,STARLINK-6029,PAYLOAD,2023-06-09 22:00:00,15.84813525,0.0003349,70.0036,26.4207,264.638,216.3917,-0.0041582,-0.00878259,0.0,0 STARLINK-6029,1 56803U 23078AN  23160.91667824 -.00878259  00000-0 -41582-2 0  9990,2 56803  70.0036  26.4207 0003349 264.6380 216.3917 15.84813525  1304,6694.987,90.862,319.094,314.61,0.0
56803.0,STARLINK-6029,PAYLOAD,2023-06-10 04:00:01,15.84367788,0.0003441,70.0033,25.7023,271.619,195.1477,-0.0046367,-0.00950638,0.0,0 STARLINK-6029,1 56803U 23078AN  23161.16668981 -.00950638  00000-0 -46367-2 0  9991,2 56803  70.0033  25.7023 0003441 271.6190 195.1477 15.84367788  1859,6696.242,90.888,320.412,315.803,0.0
56803.0,STARLINK-6029,PAYLOAD,2023-06-10 12:00:02,15.83670062,0.0003435,70.0034,24.7457,262.2066,304.798,-0.0042959,-0.0086075,0.0,0 STARLINK-6029,1 56803U 23078AN  23161.50002315 -.00860750  00000-0 -42959-2 0  9990,2 56803  70.0034  24.7457 0003435 262.2066 304.7980 15.83670062  1905,6698.209,90.928,322.375,317.773,0.0
56803.0,STARLINK-6029,PAYLOAD,2023-06-10 14:00:01,15.83544736,0.0003616,70.0036,24.5068,263.1759,58.6854,-0.0046509,-0.00920119,0.0,0 STARLINK-6029,1 56803U 23078AN  23161.58334491 -.00920119  00000-0 -46509-2 0  9992,2 56803  70.0036  24.5068 0003616 263.1759  58.6854 15.83544736  1300,6698.563,90.935,322.85,318.005,0.0
56803.0,STARLINK-6029,PAYLOAD,2023-06-10 20:00:01,15.83033143,0.0003672,70.0033,23.7901,267.7177,38.6744,-0.0047157,-0.00911503,0.0,0 STARLINK-6029,1 56803U 23078AN  23161.83334491 -.00911503  00000-0 -47157-2 0  9997,2 56803  70.0033  23.7901 0003672 267.7177  38.6744 15.83033143  1963,6700.006,90.965,324.331,319.41,0.0
56803.0,STARLINK-6029,PAYLOAD,2023-06-10 22:00:00,15.82852456,0.0003689,70.0032,23.5512,271.9452,149.1888,-0.0045524,-0.00876049,0.0,0 STARLINK-6029,1 56803U 23078AN  23161.91667824 -.00876049  00000-0 -45524-2 0  9996,2 56803  70.0032  23.5512 0003689 271.9452 149.1888 15.82852456  1309,6700.516,90.975,324.852,319.909,0.0
56803.0,STARLINK-6029,PAYLOAD,2023-06-11 14:00:01,15.81592067,0.0003653,70.0031,21.6425,263.5928,353.6743,-0.005147,-0.00927936,0.0,0 STARLINK-6029,1 56803U 23078AN  23162.58334491 -.00927936  00000-0 -51470-2 0  9990,2 56803  70.0031  21.6425 0003653 263.5928 353.6743 15.81592067  1306,6704.075,91.047,328.389,323.491,0.0
56803.0,STARLINK-6029,PAYLOAD,2023-06-11 20:00:01,15.81065156,0.0003679,70.0031,20.9277,268.1481,331.8936,-0.0050638,-0.00894351,0.0,0 STARLINK-6029,1 56803U 23078AN  23162.83334491 -.00894351  00000-0 -50638-2 0  9997,2 56803  70.0031  20.9277 0003679 268.1481 331.8936 15.81065156  2112,6705.564,91.078,329.896,324.962,0.0
56803.0,STARLINK-6029,PAYLOAD,2023-06-12 12:00:00,15.79760234,0.0003625,70.0033,19.0243,268.8727,163.0127,-0.0052093,-0.00868907,0.0,0 STARLINK-6029,1 56803U 23078AN  23163.50001157 -.00868907  00000-0 -52093-2 0  9997,2 56803  70.0033  19.0243 0003625 268.8727 163.0127 15.79760234  2222,6709.256,91.153,333.554,328.689,0.0
56803.0,STARLINK-6029,PAYLOAD,2023-06-12 20:00:01,15.79100794,0.0003491,70.0036,18.0741,272.4296,254.2188,-0.0054364,-0.00878818,0.0,0 STARLINK-6029,1 56803U 23078AN  23163.83334491 -.00878818  00000-0 -54364-2 0  9998,2 56803  70.0036  18.0741 0003491 272.4296 254.2188 15.79100794  2274,6711.124,91.191,335.332,330.646,0.0
56803.0,STARLINK-6029,PAYLOAD,2023-06-12 22:00:00,15.7893367,0.0003534,70.0036,17.8367,272.489,7.7225,-0.0053658,-0.00862514,0.0,0 STARLINK-6029,1 56803U 23078AN  23163.91667824 -.00862514  00000-0 -53658-2 0  9997,2 56803  70.0036  17.8367 0003534 272.4890   7.7225 15.78933670  1305,6711.598,91.201,335.835,331.091,0.0
56803.0,STARLINK-6029,PAYLOAD,2023-06-13 12:00:00,15.77812618,0.0003536,70.003,16.1762,266.526,87.2667,-0.0057887,-0.00882481,0.0,0 STARLINK-6029,1 56803U 23078AN  23164.50001157 -.00882481  00000-0 -57887-2 0  9997,2 56803  70.0030  16.1762 0003536 266.5260  87.2667 15.77812618  2386,6714.776,91.266,339.016,334.267,0.0
56803.0,STARLINK-6029,PAYLOAD,2023-06-13 14:00:01,15.77683555,0.0003395,70.0033,15.9392,267.7724,199.1848,-0.0062271,-0.00937582,0.0,0 STARLINK-6029,1 56803U 23078AN  23164.58334491 -.00937582  00000-0 -62271-2 0  9991,2 56803  70.0033  15.9392 0003395 267.7724 199.1848 15.77683555  1307,6715.143,91.273,339.287,334.728,0.0
56803.0,STARLINK-6029,PAYLOAD,2023-06-13 18:00:00,15.77336504,0.0003568,70.003,15.4653,269.1052,64.0711,-0.0062398,-0.00926336,0.0,0 STARLINK-6029,1 56803U 23078AN  23164.75001157 -.00926336  00000-0 -62398-2 0  9995,2 56803  70.0030  15.4653 0003568 269.1052  64.0711 15.77336504  2423,6716.128,91.293,340.389,335.596,0.0
